[{"OBJECT_NAME":"STARLINK-30204","OBJECT_ID":"2023-107R","EPOCH":"2026-03-09T03:23:43.752768","MEAN_MOTION":15.26731738,"ECCENTRICITY":0.00018257,"INCLINATION":43.0031,"RA_OF_ASC_NODE":339.1618,"ARG_OF_PERICENTER":10.6068,"MEAN_ANOMALY":349.4822,"EPHEMERIS_TYPE":0,"CLASSIFICATION_TYPE":"U","NORAD_CAT_ID":57472,"ELEMENT_SET_NO":999,"REV_AT_EPOCH":14506,"BSTAR":6.1620178e-5,"MEAN_MOTION_DOT":1.393e-5,"MEAN_MOTION_DDOT":0},{"OBJECT_NAME":"BRO-11","OBJECT_ID":"2023-174J","EPOCH":"2026-03-09T23:01:09.890400","MEAN_MOTION":15.26267731,"ECCENTRICITY":0.00104518,"INCLINATION":97.3961,"RA_OF_ASC_NODE":146.7679,"ARG_OF_PERICENTER":189.9892,"MEAN_ANOMALY":170.1141,"EPHEMERIS_TYPE":0,"CLASSIFICATION_TYPE":"U","NORAD_CAT_ID":58264,"ELEMENT_SET_NO":999,"REV_AT_EPOCH":12961,"BSTAR":0.00032296323,"MEAN_MOTION_DOT":8.313e-5,"MEAN_MOTION_DDOT":0}]
